HULIANWANG DIGUI-81     
1 65313U 25187J   26073.92898824 -.00000102  00000+0  47762-4 0  9992
2 65313  50.0064 183.8869 0001017 173.0861 187.0026 13.29342127 27178
HULIANWANG DIGUI-82     
1 65817U 25220A   26073.95580282  .00000090  00000+0  17602-3 0  9992
2 65817  86.4900  75.6828 0002364  92.8679 267.2726 13.24422598 22442
HULIANWANG DIGUI-83     
1 65818U 25220B   26073.94830346  .00000099  00000+0  19711-3 0  9993
2 65818  86.4922  75.7177 0002353  92.8580 267.2823 13.24421789 22443
HULIANWANG DIGUI-84     
1 65819U 25220C   26073.94071803  .00000086  00000+0  16606-3 0  9995
2 65819  86.4859  75.6054 0002339  92.0863 268.0539 13.24422185 22440
HULIANWANG DIGUI-85     
1 65820U 25220D   26073.93311365  .00000075  00000+0  14028-3 0  9990
2 65820  86.4920  75.7077 0002339  93.1743 266.9659 13.24422712 22442
HULIANWANG DIGUI-86     
1 65821U 25220E   26073.92565500  .00000059  00000+0  10331-3 0  9997
2 65821  86.4899  75.6670 0002336  92.9843 267.1558 13.24421536 22445
HULIANWANG DIGUI-87     
1 65995U 25231A   26073.89028358 -.00000093  00000+0  67436-4 0  9990
2 65995  49.9992 154.0696 0000644 226.5574 133.5245 13.29331080 20346
HULIANWANG DIGUI-88     
1 65996U 25231B   26073.89866562 -.00000086  00000+0  82030-4 0  9997
2 65996  49.9979 154.0985 0000681 231.5978 128.4833 13.29330143 20343
HULIANWANG DIGUI-89     
1 65997U 25231C   26073.73157031 -.00000084  00000+0  85321-4 0  9999
2 65997  49.9956 154.5235 0000685 231.9815 128.0995 13.29330786 20326
HULIANWANG DIGUI-90     
1 65998U 25231D   26073.94875385 -.00000095  00000+0  63588-4 0  9995
2 65998  49.9990 153.7068 0000658 234.3779 125.7032 13.29331017 20353
HULIANWANG DIGUI-91     
1 65999U 25231E   26073.94040385 -.00000097  00000+0  58563-4 0  9999
2 65999  50.0005 153.6886 0000680 232.3978 127.6832 13.29330907 20351
HULIANWANG DIGUI-92     
1 66000U 25231F   26073.93203840 -.00000093  00000+0  67261-4 0  9990
2 66000  50.0046 153.6932 0000681 232.5049 127.5761 13.29331467 20356
HULIANWANG DIGUI-93     
1 66001U 25231G   26073.91537101 -.00000094  00000+0  64760-4 0  9991
2 66001  50.0013 153.5711 0000661 232.5597 127.5215 13.29330494 20354
HULIANWANG DIGUI-94     
1 66002U 25231H   26073.92368550 -.00000094  00000+0  65677-4 0  9991
2 66002  50.0052 153.6617 0000684 232.5803 127.5007 13.29331694 20351
HULIANWANG DIGUI-95     
1 66003U 25231J   26073.90719034 -.00000088  00000+0  77775-4 0  9992
2 66003  50.0025 153.5435 0000661 228.9135 131.1680 13.29326616 20357
HULIANWANG DIGUI-96     
1 66412U 25258A   26073.55473811 -.00000068  00000+0  12005-3 0  9998
2 66412  50.0038 275.0409 0000520 130.3250 229.7667 13.29332360 17149
