[{"OBJECT_NAME":"HULIANWANG DIGUI-81","OBJECT_ID":"2025-187J","EPOCH":"2026-03-14T22:17:44.583936","MEAN_MOTION":13.29342127,"ECCENTRICITY":0.00010176,"INCLINATION":50.0064,"RA_OF_ASC_NODE":183.8869,"ARG_OF_PERICENTER":173.0861,"MEAN_ANOMALY":187.0026,"EPHEMERIS_TYPE":0,"CLASSIFICATION_TYPE":"U","NORAD_CAT_ID":65313,"ELEMENT_SET_NO":999,"REV_AT_EPOCH":2717,"BSTAR":4.776213e-5,"MEAN_MOTION_DOT":-1.02e-6,"MEAN_MOTION_DDOT":0},{"OBJECT_NAME":"HULIANWANG DIGUI-82","OBJECT_ID":"2025-220A","EPOCH":"2026-03-14T22:56:21.363648","MEAN_MOTION":13.24422598,"ECCENTRICITY":0.00023641,"INCLINATION":86.49,"RA_OF_ASC_NODE":75.6828,"ARG_OF_PERICENTER":92.8679,"MEAN_ANOMALY":267.2726,"EPHEMERIS_TYPE":0,"CLASSIFICATION_TYPE":"U","NORAD_CAT_ID":65817,"ELEMENT_SET_NO":999,"REV_AT_EPOCH":2244,"BSTAR":0.00017601936,"MEAN_MOTION_DOT":9.0e-7,"MEAN_MOTION_DDOT":0},{"OBJECT_NAME":"HULIANWANG DIGUI-83","OBJECT_ID":"2025-220B","EPOCH":"2026-03-14T22:45:33.418944","MEAN_MOTION":13.24421789,"ECCENTRICITY":0.00023533,"INCLINATION":86.4922,"RA_OF_ASC_NODE":75.7177,"ARG_OF_PERICENTER":92.858,"MEAN_ANOMALY":267.2823,"EPHEMERIS_TYPE":0,"CLASSIFICATION_TYPE":"U","NORAD_CAT_ID":65818,"ELEMENT_SET_NO":999,"REV_AT_EPOCH":2244,"BSTAR":0.00019711275,"MEAN_MOTION_DOT":9.9e-7,"MEAN_MOTION_DDOT":0},{"OBJECT_NAME":"HULIANWANG DIGUI-84","OBJECT_ID":"2025-220C","EPOCH":"2026-03-14T22:34:38.037792","MEAN_MOTION":13.24422185,"ECCENTRICITY":0.00023397,"INCLINATION":86.4859,"RA_OF_ASC_NODE":75.6054,"ARG_OF_PERICENTER":92.0863,"MEAN_ANOMALY":268.0539,"EPHEMERIS_TYPE":0,"CLASSIFICATION_TYPE":"U","NORAD_CAT_ID":65819,"ELEMENT_SET_NO":999,"REV_AT_EPOCH":2244,"BSTAR":0.00016606159,"MEAN_MOTION_DOT":8.6e-7,"MEAN_MOTION_DDOT":0},{"OBJECT_NAME":"HULIANWANG DIGUI-85","OBJECT_ID":"2025-220D","EPOCH":"2026-03-14T22:23:41.019360","MEAN_MOTION":13.24422712,"ECCENTRICITY":0.00023396,"INCLINATION":86.492,"RA_OF_ASC_NODE":75.7077,"ARG_OF_PERICENTER":93.1743,"MEAN_ANOMALY":266.9659,"EPHEMERIS_TYPE":0,"CLASSIFICATION_TYPE":"U","NORAD_CAT_ID":65820,"ELEMENT_SET_NO":999,"REV_AT_EPOCH":2244,"BSTAR":0.00014027795,"MEAN_MOTION_DOT":7.5e-7,"MEAN_MOTION_DDOT":0},{"OBJECT_NAME":"HULIANWANG DIGUI-86","OBJECT_ID":"2025-220E","EPOCH":"2026-03-14T22:12:56.592000","MEAN_MOTION":13.24421536,"ECCENTRICITY":0.00023369,"INCLINATION":86.4899,"RA_OF_ASC_NODE":75.667,"ARG_OF_PERICENTER":92.9843,"MEAN_ANOMALY":267.1558,"EPHEMERIS_TYPE":0,"CLASSIFICATION_TYPE":"U","NORAD_CAT_ID":65821,"ELEMENT_SET_NO":999,"REV_AT_EPOCH":2244,"BSTAR":0.00010330918,"MEAN_MOTION_DOT":5.9e-7,"MEAN_MOTION_DDOT":0},{"OBJECT_NAME":"HULIANWANG DIGUI-87","OBJECT_ID":"2025-231A","EPOCH":"2026-03-14T21:22:00.501312","MEAN_MOTION":13.2933108,"ECCENTRICITY":6.442e-5,"INCLINATION":49.9992,"RA_OF_ASC_NODE":154.0696,"ARG_OF_PERICENTER":226.5574,"MEAN_ANOMALY":133.5245,"EPHEMERIS_TYPE":0,"CLASSIFICATION_TYPE":"U","NORAD_CAT_ID":65995,"ELEMENT_SET_NO":999,"REV_AT_EPOCH":2034,"BSTAR":6.7435816e-5,"MEAN_MOTION_DOT":-9.3e-7,"MEAN_MOTION_DDOT":0},{"OBJECT_NAME":"HULIANWANG DIGUI-88","OBJECT_ID":"2025-231B","EPOCH":"2026-03-14T21:34:04.709568","MEAN_MOTION":13.29330143,"ECCENTRICITY":6.811e-5,"INCLINATION":49.9979,"RA_OF_ASC_NODE":154.0985,"ARG_OF_PERICENTER":231.5978,"MEAN_ANOMALY":128.4833,"EPHEMERIS_TYPE":0,"CLASSIFICATION_TYPE":"U","NORAD_CAT_ID":65996,"ELEMENT_SET_NO":999,"REV_AT_EPOCH":2034,"BSTAR":8.2029614e-5,"MEAN_MOTION_DOT":-8.6e-7,"MEAN_MOTION_DDOT":0},{"OBJECT_NAME":"HULIANWANG DIGUI-89","OBJECT_ID":"2025-231C","EPOCH":"2026-03-14T17:33:27.674784","MEAN_MOTION":13.29330786,"ECCENTRICITY":6.859e-5,"INCLINATION":49.9956,"RA_OF_ASC_NODE":154.5235,"ARG_OF_PERICENTER":231.9815,"MEAN_ANOMALY":128.0995,"EPHEMERIS_TYPE":0,"CLASSIFICATION_TYPE":"U","NORAD_CAT_ID":65997,"ELEMENT_SET_NO":999,"REV_AT_EPOCH":2032,"BSTAR":8.5321198e-5,"MEAN_MOTION_DOT":-8.4e-7,"MEAN_MOTION_DDOT":0},{"OBJECT_NAME":"HULIANWANG DIGUI-90","OBJECT_ID":"2025-231D","EPOCH":"2026-03-14T22:46:12.332640","MEAN_MOTION":13.29331017,"ECCENTRICITY":6.587e-5,"INCLINATION":49.999,"RA_OF_ASC_NODE":153.7068,"ARG_OF_PERICENTER":234.3779,"MEAN_ANOMALY":125.7032,"EPHEMERIS_TYPE":0,"CLASSIFICATION_TYPE":"U","NORAD_CAT_ID":65998,"ELEMENT_SET_NO":999,"REV_AT_EPOCH":2035,"BSTAR":6.3588242e-5,"MEAN_MOTION_DOT":-9.5e-7,"MEAN_MOTION_DDOT":0},{"OBJECT_NAME":"HULIANWANG DIGUI-91","OBJECT_ID":"2025-231E","EPOCH":"2026-03-14T22:34:10.892640","MEAN_MOTION":13.29330907,"ECCENTRICITY":6.804e-5,"INCLINATION":50.0005,"RA_OF_ASC_NODE":153.6886,"ARG_OF_PERICENTER":232.3978,"MEAN_ANOMALY":127.6832,"EPHEMERIS_TYPE":0,"CLASSIFICATION_TYPE":"U","NORAD_CAT_ID":65999,"ELEMENT_SET_NO":999,"REV_AT_EPOCH":2035,"BSTAR":5.8562582e-5,"MEAN_MOTION_DOT":-9.7e-7,"MEAN_MOTION_DDOT":0},{"OBJECT_NAME":"HULIANWANG DIGUI-92","OBJECT_ID":"2025-231F","EPOCH":"2026-03-14T22:22:08.117760","MEAN_MOTION":13.29331467,"ECCENTRICITY":6.817e-5,"INCLINATION":50.0046,"RA_OF_ASC_NODE":153.6932,"ARG_OF_PERICENTER":232.5049,"MEAN_ANOMALY":127.5761,"EPHEMERIS_TYPE":0,"CLASSIFICATION_TYPE":"U","NORAD_CAT_ID":66000,"ELEMENT_SET_NO":999,"REV_AT_EPOCH":2035,"BSTAR":6.726138e-5,"MEAN_MOTION_DOT":-9.3e-7,"MEAN_MOTION_DDOT":0},{"OBJECT_NAME":"HULIANWANG DIGUI-93","OBJECT_ID":"2025-231G","EPOCH":"2026-03-14T21:58:08.055264","MEAN_MOTION":13.29330494,"ECCENTRICITY":6.617e-5,"INCLINATION":50.0013,"RA_OF_ASC_NODE":153.5711,"ARG_OF_PERICENTER":232.5597,"MEAN_ANOMALY":127.5215,"EPHEMERIS_TYPE":0,"CLASSIFICATION_TYPE":"U","NORAD_CAT_ID":66001,"ELEMENT_SET_NO":999,"REV_AT_EPOCH":2035,"BSTAR":6.4759802e-5,"MEAN_MOTION_DOT":-9.4e-7,"MEAN_MOTION_DDOT":0},{"OBJECT_NAME":"HULIANWANG DIGUI-94","OBJECT_ID":"2025-231H","EPOCH":"2026-03-14T22:10:06.427200","MEAN_MOTION":13.29331694,"ECCENTRICITY":6.845e-5,"INCLINATION":50.0052,"RA_OF_ASC_NODE":153.6617,"ARG_OF_PERICENTER":232.5803,"MEAN_ANOMALY":127.5007,"EPHEMERIS_TYPE":0,"CLASSIFICATION_TYPE":"U","NORAD_CAT_ID":66002,"ELEMENT_SET_NO":999,"REV_AT_EPOCH":2035,"BSTAR":6.5677269e-5,"MEAN_MOTION_DOT":-9.4e-7,"MEAN_MOTION_DDOT":0},{"OBJECT_NAME":"HULIANWANG DIGUI-95","OBJECT_ID":"2025-231J","EPOCH":"2026-03-14T21:46:21.245376","MEAN_MOTION":13.29326616,"ECCENTRICITY":6.613e-5,"INCLINATION":50.0025,"RA_OF_ASC_NODE":153.5435,"ARG_OF_PERICENTER":228.9135,"MEAN_ANOMALY":131.168,"EPHEMERIS_TYPE":0,"CLASSIFICATION_TYPE":"U","NORAD_CAT_ID":66003,"ELEMENT_SET_NO":999,"REV_AT_EPOCH":2035,"BSTAR":7.7774868e-5,"MEAN_MOTION_DOT":-8.8e-7,"MEAN_MOTION_DDOT":0},{"OBJECT_NAME":"HULIANWANG DIGUI-96","OBJECT_ID":"2025-258A","EPOCH":"2026-03-14T13:18:49.372704","MEAN_MOTION":13.2933236,"ECCENTRICITY":5.208e-5,"INCLINATION":50.0038,"RA_OF_ASC_NODE":275.0409,"ARG_OF_PERICENTER":130.325,"MEAN_ANOMALY":229.7667,"EPHEMERIS_TYPE":0,"CLASSIFICATION_TYPE":"U","NORAD_CAT_ID":66412,"ELEMENT_SET_NO":999,"REV_AT_EPOCH":1714,"BSTAR":0.00012005415,"MEAN_MOTION_DOT":-6.8e-7,"MEAN_MOTION_DDOT":0}]
